CUTE-1.7+APD II (CO-65) 
1 32785U 08021C   26064.20244243  .00008844  00000+0  57356-3 0  9997
2 32785  97.8205  43.5935 0010213  33.5486 326.6386 15.08295688969519
SEEDS II (CO-66)        
1 32791U 08021J   26063.55452727  .00027773  00000+0  99192-3 0  9995
2 32791  97.7508  56.7719 0002344  16.0958 344.0355 15.28814513971286
YUBILEINY (RS30)        
1 32953U 08025A   26064.28153501 -.00000040  00000+0 -35825-3 0  9991
2 32953  82.4985  60.0657 0019365 174.8578 185.2705 12.43175674806785
KKS-1 (KISEKI)          
1 33499U 09002H   26064.21361899  .00002528  00000+0  31933-3 0  9994
2 33499  98.1191 345.0410 0006428 268.5613  91.4863 14.82809137920787
SWISSCUBE               
1 35932U 09051B   26064.23496379  .00001765  00000+0  35985-3 0  9999
2 35932  98.4103 330.2989 0006767 165.9945 194.1445 14.62245193873966
BEESAT-1                
1 35933U 09051C   26064.19149259  .00001486  00000+0  30945-3 0  9998
2 35933  98.4034 330.1037 0004998 176.8961 183.2271 14.61520944873994
ITUPSAT1                
1 35935U 09051E   26064.22887407  .00001364  00000+0  29277-3 0  9999
2 35935  98.4120 329.4408 0006957 192.5039 167.5990 14.60257017873566
XIWANG-1 (HOPE-1)       
1 36122U 09072B   26064.27702694 -.00000170  00000+0 -33030-3 0  9998
2 36122 100.3910  19.8258 0008039 108.9289 251.2696 13.16435956779333
O/OREOS (USA 219)       
1 37224U 10062C   26064.10930874  .00003237  00000+0  31434-3 0  9999
2 37224  71.9722 316.0103 0016901 264.3981  95.5262 14.93250813101100
JUGNU                   
1 37839U 11058B   26063.78059343  .00000542  00000+0  14363-3 0  9991
2 37839  19.9595 222.7218 0018687   3.5238 127.1424 14.13738238744236
SRMSAT                  
1 37841U 11058D   26064.10931308  .00000484  00000+0  11876-3 0  9992
2 37841  19.9731 329.4270 0011869 138.8797   2.6988 14.11545541743097
STRAND-1                
1 39090U 13009E   26063.48172039  .00000561  00000+0  20324-3 0  9990
2 39090  98.3882 246.3029 0008692 176.9706 183.1535 14.37089808682020
ZACUBE-1 (TSHEPISOSAT)  
1 39417U 13066B   26064.12813661  .00006431  00000+0  50899-3 0  9993
2 39417  97.8184  25.9295 0041858 235.3351 124.3924 15.00268225665129
GOMX-1                  
1 39430U 13066Q   26064.26146503  .00002126  00000+0  32540-3 0  9997
2 39430  97.6566 271.2428 0130535  51.5982 309.6863 14.69076378654655
CUBEBUG-2 (LO-74)       
1 39440U 13066AA  26064.27408983  .00008426  00000+0  79081-3 0  9992
2 39440  97.8819  12.9402 0059233  13.7725 346.5093 14.92890152661485
FUNCUBE-1 (AO-73)       
1 39444U 13066AE  26063.39850331  .00015175  00000+0  97977-3 0  9999
2 39444  97.8175  32.8468 0036706 197.5791 162.4169 15.07790976663864
