[{"OBJECT_NAME":"CUTE-1.7+APD II (CO-65)","OBJECT_ID":"2008-021C","EPOCH":"2026-03-05T04:51:31.025952","MEAN_MOTION":15.08295688,"ECCENTRICITY":0.00102134,"INCLINATION":97.8205,"RA_OF_ASC_NODE":43.5935,"ARG_OF_PERICENTER":33.5486,"MEAN_ANOMALY":326.6386,"EPHEMERIS_TYPE":0,"CLASSIFICATION_TYPE":"U","NORAD_CAT_ID":32785,"ELEMENT_SET_NO":999,"REV_AT_EPOCH":96951,"BSTAR":0.00057356484,"MEAN_MOTION_DOT":8.844e-5,"MEAN_MOTION_DDOT":0},{"OBJECT_NAME":"SEEDS II (CO-66)","OBJECT_ID":"2008-021J","EPOCH":"2026-03-04T13:18:31.156128","MEAN_MOTION":15.28814513,"ECCENTRICITY":0.0002344,"INCLINATION":97.7508,"RA_OF_ASC_NODE":56.7719,"ARG_OF_PERICENTER":16.0958,"MEAN_ANOMALY":344.0355,"EPHEMERIS_TYPE":0,"CLASSIFICATION_TYPE":"U","NORAD_CAT_ID":32791,"ELEMENT_SET_NO":999,"REV_AT_EPOCH":97128,"BSTAR":0.00099192,"MEAN_MOTION_DOT":0.00027773,"MEAN_MOTION_DDOT":0},{"OBJECT_NAME":"YUBILEINY (RS30)","OBJECT_ID":"2008-025A","EPOCH":"2026-03-05T06:45:24.624864","MEAN_MOTION":12.43175674,"ECCENTRICITY":0.00193653,"INCLINATION":82.4985,"RA_OF_ASC_NODE":60.0657,"ARG_OF_PERICENTER":174.8578,"MEAN_ANOMALY":185.2705,"EPHEMERIS_TYPE":0,"CLASSIFICATION_TYPE":"U","NORAD_CAT_ID":32953,"ELEMENT_SET_NO":999,"REV_AT_EPOCH":80678,"BSTAR":-0.0003582452,"MEAN_MOTION_DOT":-4.0e-7,"MEAN_MOTION_DDOT":0},{"OBJECT_NAME":"KKS-1 (KISEKI)","OBJECT_ID":"2009-002H","EPOCH":"2026-03-05T05:07:36.680736","MEAN_MOTION":14.82809137,"ECCENTRICITY":0.00064287,"INCLINATION":98.1191,"RA_OF_ASC_NODE":345.041,"ARG_OF_PERICENTER":268.5613,"MEAN_ANOMALY":91.4863,"EPHEMERIS_TYPE":0,"CLASSIFICATION_TYPE":"U","NORAD_CAT_ID":33499,"ELEMENT_SET_NO":999,"REV_AT_EPOCH":92078,"BSTAR":0.00031933039,"MEAN_MOTION_DOT":2.528e-5,"MEAN_MOTION_DDOT":0},{"OBJECT_NAME":"SWISSCUBE","OBJECT_ID":"2009-051B","EPOCH":"2026-03-05T05:38:20.871456","MEAN_MOTION":14.62245193,"ECCENTRICITY":0.00067679,"INCLINATION":98.4103,"RA_OF_ASC_NODE":330.2989,"ARG_OF_PERICENTER":165.9945,"MEAN_ANOMALY":194.1445,"EPHEMERIS_TYPE":0,"CLASSIFICATION_TYPE":"U","NORAD_CAT_ID":35932,"ELEMENT_SET_NO":999,"REV_AT_EPOCH":87396,"BSTAR":0.00035985013,"MEAN_MOTION_DOT":1.765e-5,"MEAN_MOTION_DDOT":0},{"OBJECT_NAME":"BEESAT-1","OBJECT_ID":"2009-051C","EPOCH":"2026-03-05T04:35:44.959776","MEAN_MOTION":14.61520944,"ECCENTRICITY":0.00049981,"INCLINATION":98.4034,"RA_OF_ASC_NODE":330.1037,"ARG_OF_PERICENTER":176.8961,"MEAN_ANOMALY":183.2271,"EPHEMERIS_TYPE":0,"CLASSIFICATION_TYPE":"U","NORAD_CAT_ID":35933,"ELEMENT_SET_NO":999,"REV_AT_EPOCH":87399,"BSTAR":0.00030945209,"MEAN_MOTION_DOT":1.486e-5,"MEAN_MOTION_DDOT":0},{"OBJECT_NAME":"ITUPSAT1","OBJECT_ID":"2009-051E","EPOCH":"2026-03-05T05:29:34.719648","MEAN_MOTION":14.60257017,"ECCENTRICITY":0.00069575,"INCLINATION":98.412,"RA_OF_ASC_NODE":329.4408,"ARG_OF_PERICENTER":192.5039,"MEAN_ANOMALY":167.599,"EPHEMERIS_TYPE":0,"CLASSIFICATION_TYPE":"U","NORAD_CAT_ID":35935,"ELEMENT_SET_NO":999,"REV_AT_EPOCH":87356,"BSTAR":0.00029276943,"MEAN_MOTION_DOT":1.364e-5,"MEAN_MOTION_DDOT":0},{"OBJECT_NAME":"XIWANG-1 (HOPE-1)","OBJECT_ID":"2009-072B","EPOCH":"2026-03-05T06:38:55.127616","MEAN_MOTION":13.16435956,"ECCENTRICITY":0.00080391,"INCLINATION":100.391,"RA_OF_ASC_NODE":19.8258,"ARG_OF_PERICENTER":108.9289,"MEAN_ANOMALY":251.2696,"EPHEMERIS_TYPE":0,"CLASSIFICATION_TYPE":"U","NORAD_CAT_ID":36122,"ELEMENT_SET_NO":999,"REV_AT_EPOCH":77933,"BSTAR":-0.00033030398,"MEAN_MOTION_DOT":-1.7e-6,"MEAN_MOTION_DDOT":0},{"OBJECT_NAME":"O/OREOS (USA 219)","OBJECT_ID":"2010-062C","EPOCH":"2026-03-05T02:37:24.275136","MEAN_MOTION":14.93250813,"ECCENTRICITY":0.00169013,"INCLINATION":71.9722,"RA_OF_ASC_NODE":316.0103,"ARG_OF_PERICENTER":264.3981,"MEAN_ANOMALY":95.5262,"EPHEMERIS_TYPE":0,"CLASSIFICATION_TYPE":"U","NORAD_CAT_ID":37224,"ELEMENT_SET_NO":999,"REV_AT_EPOCH":10110,"BSTAR":0.00031434353,"MEAN_MOTION_DOT":3.237e-5,"MEAN_MOTION_DDOT":0},{"OBJECT_NAME":"JUGNU","OBJECT_ID":"2011-058B","EPOCH":"2026-03-04T18:44:03.272352","MEAN_MOTION":14.13738238,"ECCENTRICITY":0.00186877,"INCLINATION":19.9595,"RA_OF_ASC_NODE":222.7218,"ARG_OF_PERICENTER":3.5238,"MEAN_ANOMALY":127.1424,"EPHEMERIS_TYPE":0,"CLASSIFICATION_TYPE":"U","NORAD_CAT_ID":37839,"ELEMENT_SET_NO":999,"REV_AT_EPOCH":74423,"BSTAR":0.00014363357,"MEAN_MOTION_DOT":5.42e-6,"MEAN_MOTION_DDOT":0},{"OBJECT_NAME":"SRMSAT","OBJECT_ID":"2011-058D","EPOCH":"2026-03-05T02:37:24.650112","MEAN_MOTION":14.11545541,"ECCENTRICITY":0.00118694,"INCLINATION":19.9731,"RA_OF_ASC_NODE":329.427,"ARG_OF_PERICENTER":138.8797,"MEAN_ANOMALY":2.6988,"EPHEMERIS_TYPE":0,"CLASSIFICATION_TYPE":"U","NORAD_CAT_ID":37841,"ELEMENT_SET_NO":999,"REV_AT_EPOCH":74309,"BSTAR":0.00011876107,"MEAN_MOTION_DOT":4.84e-6,"MEAN_MOTION_DDOT":0},{"OBJECT_NAME":"STRAND-1","OBJECT_ID":"2013-009E","EPOCH":"2026-03-04T11:33:40.641696","MEAN_MOTION":14.37089808,"ECCENTRICITY":0.00086929,"INCLINATION":98.3882,"RA_OF_ASC_NODE":246.3029,"ARG_OF_PERICENTER":176.9706,"MEAN_ANOMALY":183.1535,"EPHEMERIS_TYPE":0,"CLASSIFICATION_TYPE":"U","NORAD_CAT_ID":39090,"ELEMENT_SET_NO":999,"REV_AT_EPOCH":68202,"BSTAR":0.00020323985,"MEAN_MOTION_DOT":5.61e-6,"MEAN_MOTION_DDOT":0},{"OBJECT_NAME":"ZACUBE-1 (TSHEPISOSAT)","OBJECT_ID":"2013-066B","EPOCH":"2026-03-05T03:04:31.003104","MEAN_MOTION":15.00268225,"ECCENTRICITY":0.0041858,"INCLINATION":97.8184,"RA_OF_ASC_NODE":25.9295,"ARG_OF_PERICENTER":235.3351,"MEAN_ANOMALY":124.3924,"EPHEMERIS_TYPE":0,"CLASSIFICATION_TYPE":"U","NORAD_CAT_ID":39417,"ELEMENT_SET_NO":999,"REV_AT_EPOCH":66512,"BSTAR":0.00050898604,"MEAN_MOTION_DOT":6.431e-5,"MEAN_MOTION_DDOT":0},{"OBJECT_NAME":"GOMX-1","OBJECT_ID":"2013-066Q","EPOCH":"2026-03-05T06:16:30.578592","MEAN_MOTION":14.69076378,"ECCENTRICITY":0.01305357,"INCLINATION":97.6566,"RA_OF_ASC_NODE":271.2428,"ARG_OF_PERICENTER":51.5982,"MEAN_ANOMALY":309.6863,"EPHEMERIS_TYPE":0,"CLASSIFICATION_TYPE":"U","NORAD_CAT_ID":39430,"ELEMENT_SET_NO":999,"REV_AT_EPOCH":65465,"BSTAR":0.00032539836,"MEAN_MOTION_DOT":2.126e-5,"MEAN_MOTION_DDOT":0},{"OBJECT_NAME":"CUBEBUG-2 (LO-74)","OBJECT_ID":"2013-066AA","EPOCH":"2026-03-05T06:34:41.361312","MEAN_MOTION":14.92890152,"ECCENTRICITY":0.00592337,"INCLINATION":97.8819,"RA_OF_ASC_NODE":12.9402,"ARG_OF_PERICENTER":13.7725,"MEAN_ANOMALY":346.5093,"EPHEMERIS_TYPE":0,"CLASSIFICATION_TYPE":"U","NORAD_CAT_ID":39440,"ELEMENT_SET_NO":999,"REV_AT_EPOCH":66148,"BSTAR":0.00079081334,"MEAN_MOTION_DOT":8.426e-5,"MEAN_MOTION_DDOT":0},{"OBJECT_NAME":"FUNCUBE-1 (AO-73)","OBJECT_ID":"2013-066AE","EPOCH":"2026-03-04T09:33:50.685984","MEAN_MOTION":15.07790976,"ECCENTRICITY":0.00367061,"INCLINATION":97.8175,"RA_OF_ASC_NODE":32.8468,"ARG_OF_PERICENTER":197.5791,"MEAN_ANOMALY":162.4169,"EPHEMERIS_TYPE":0,"CLASSIFICATION_TYPE":"U","NORAD_CAT_ID":39444,"ELEMENT_SET_NO":999,"REV_AT_EPOCH":66386,"BSTAR":0.00097976762,"MEAN_MOTION_DOT":0.00015175,"MEAN_MOTION_DDOT":0}]
